GALAXY 25 (G-25)        
1 24812C 97026A   22104.00000000  .00000087  00000-0  00000-0 0  1043
2 24812   3.5279  84.2938 0005315 320.5048 223.4782  1.00271808    11
GALAXY 25 (G-25)        
1 24812C 97026A   22108.00000000  .00000087  00000-0  00000-0 0  1081
2 24812   3.5424  84.1878 0005592 328.2190 219.8059  1.00272909    14
GALAXY 25 (G-25)    [PM]
1 24812C 97026A   22110.22042824  .00000087  00000-0  00000-0 0  1101
2 24812   3.5512  84.1966 0005028 333.9382 295.6296  1.00269777    14
INTELSAT 5 (IS-5)       
1 24916C 97046A   22104.00000000  .00000154  00000-0  00000-0 0  1045
2 24916   7.0891  61.4955 0002033  72.4835 250.4627  1.00149029    19
INTELSAT 5 (IS-5)       
1 24916C 97046A   22108.00000000  .00000143  00000-0  00000-0 0  1081
2 24916   7.1031  61.4546 0002766  65.6009 259.5997  1.00150879    17
GALAXY 11 (G-11)        
1 26038C 99071A   22104.00000000 -.00000072  00000-0  00000-0 0  1042
2 26038   2.8338  88.5851 0000408  18.5338   1.9285  1.00270791    13
GALAXY 11 (G-11)        
1 26038C 99071A   22108.00000000 -.00000072  00000-0  00000-0 0  1080
2 26038   2.8469  88.4513 0000917  22.3086   2.2274  1.00271578    16
INTELSAT 9 (IS-9)   [PM]
1 26451C 00043A   22101.71986111 -.00000191  00000-0  00000-0 0  1012
2 26451   7.0706  61.6749 0002053   5.1365 342.2325  1.00273993    19
INTELSAT 9 (IS-9)       
1 26451C 00043A   22104.00000000 -.00000191  00000-0  00000-0 0  1044
2 26451   7.0747  61.6604 0005370 336.6589 113.8568  1.00270059    10
INTELSAT 9 (IS-9)       
1 26451C 00043A   22108.00000000 -.00000191  00000-0  00000-0 0  1082
2 26451   7.0884  61.6190 0005557 343.0040 111.4938  1.00268407    12
INTELSAT 1R (IS-1R)     
1 26608C 00072A   22104.00000000 -.00000047  00000-0  00000-0 0  1040
2 26608   4.2993  80.6636 0000903 350.5208 288.0949  1.00269382    17
INTELSAT 1R (IS-1R)     
1 26608C 00072A   22108.00000000 -.00000047  00000-0  00000-0 0  1088
2 26608   4.3157  80.5784 0000936 357.9468 284.6974  1.00269747    13
INTELSAT 10 (IS-10)     
1 26766C 01019A   22104.00000000  .00000127  00000-0  00000-0 0  1045
2 26766   5.4234  73.8914 0002871 312.7848 353.2756  1.00268907    15
INTELSAT 10 (IS-10)     
1 26766C 01019A   22108.00000000  .00000127  00000-0  00000-0 0  1083
2 26766   5.4380  73.8229 0003051 326.6435 343.4278  1.00270647    17
INTELSAT 10 (IS-10) [PM]
1 26766C 01019A   22110.90123843  .00000127  00000-0  00000-0 0  1109
2 26766   5.4467  68.2949 0003673 320.0745 322.8483  1.00267850    13
INTELSAT 901            
1 26824C 01024A   22104.00000000 -.00000117  00000-0  00000-0 0  1046
2 26824   0.0404  83.7590 0001228 305.5043 145.4082  1.00270507    14
INTELSAT 901            
1 26824C 01024A   22108.00000000 -.00000128  00000-0  00000-0 0  1086
2 26824   0.0494  66.7681 0001138 339.6220 132.2187  1.00271075    11
INTELSAT 902            
1 26900C 01039A   22104.00000000 -.00000192  00000-0  00000-0 0  1040
2 26900   2.2403  89.6938 0003616 306.6154 115.7537  1.00272383    10
INTELSAT 902            
1 26900C 01039A   22108.00000000 -.00000192  00000-0  00000-0 0  1088
2 26900   2.2538  89.5230 0003815 318.2007 108.2809  1.00271296    11
INTELSAT 902        [PM]
1 26900C 01039A   22110.37332176 -.00000192  00000-0  00000-0 0  1106
2 26900   2.2639  88.9533 0003596 309.7199 254.0641  1.00271828    10
INTELSAT 904            
1 27380C 02007A   22104.00000000 -.00000123  00000-0  00000-0 0  1043
2 27380   3.0736  86.6064 0003643 307.1491 138.9108  1.00270612    12
INTELSAT 904            
1 27380C 02007A   22108.00000000 -.00000123  00000-0  00000-0 0  1081
2 27380   3.0873  86.4737 0003736 317.2773 132.8472  1.00271539    13
INTELSAT 904        [PM]
1 27380C 02007A   22108.54549769 -.00000123  00000-0  00000-0 0  1080
2 27380   3.0900  86.4658 0003028 308.4008 338.6502  1.00271015    12
INTELSAT 905        [PM]
1 27438C 02027A   22101.67473380 -.00000094  00000-0  00000-0 0  1018
2 27438   2.8914  87.4181 0002483 279.1669  51.6896  1.00271777    14
INTELSAT 905            
1 27438C 02027A   22104.00000000 -.00000094  00000-0  00000-0 0  1046
2 27438   2.8950  87.3674 0003142 297.1946 153.1093  1.00271338    11
INTELSAT 905            
1 27438C 02027A   22108.00000000 -.00000094  00000-0  00000-0 0  1084
2 27438   2.9089  87.2283 0003163 310.7928 143.5887  1.00271025    12
GALAXY 3C (G-3C)        
1 27445C 02030A   22104.00000000 -.00000093  00000-0  00000-0 0  1047
2 27445   0.0218 359.1940 0002004 335.0180 132.8979  1.00268950    13
GALAXY 3C (G-3C)        
1 27445C 02030A   22108.00000000 -.00000068  00000-0  00000-0 0  1087
2 27445   0.0442  28.2474 0001757 309.3715 133.4293  1.00269135    12
INTELSAT 906            
1 27513C 02041A   22104.00000000  .00000105  00000-0  00000-0 0  1048
2 27513   1.9076  91.2258 0004849 301.0375 234.0452  1.00271151    13
INTELSAT 906            
1 27513C 02041A   22108.00000000  .00000105  00000-0  00000-0 0  1086
2 27513   1.9213  91.0355 0004943 309.4470 229.7635  1.00272410    18
INTELSAT 906        [PM]
1 27513C 02041A   22111.44519676  .00000105  00000-0  00000-0 0  1116
2 27513   1.9348  86.4014 0004417 314.0359  33.4720  1.00270211    13
GALAXY 12 (G-12)        
1 27715C 03013B   22104.00000000  .00000149  00000-0  00000-0 0  1040
2 27715   3.1064  86.2051 0001985 316.3579  30.5854  1.00270950    17
GALAXY 12 (G-12)        
1 27715C 03013B   22108.00000000  .00000149  00000-0  00000-0 0  1088
2 27715   3.1208  86.0834 0002278 331.5237  19.4840  1.00272796    11
GALAXY 12 (G-12)    [PM]
1 27715C 03013B   22109.57271991  .00000149  00000-0  00000-0 0  1091
2 27715   3.1272  86.0895 0002698 313.5344 245.1989  1.00271247    16
GALAXY 23 (G-23)        
1 27854C 03034A   22104.00000000  .00000105  00000-0  00000-0 0  1049
2 27854   0.0095 204.9303 0003116 174.5599  61.6593  1.00270954    13
GALAXY 23 (G-23)        
1 27854C 03034A   22108.00000000  .00000103  00000-0  00000-0 0  1085
2 27854   0.0185 254.6682 0003148 135.7001  54.7321  1.00270285    16
GALAXY 23 (G-23)    [PM]
1 27854C 03034A   22108.54370370  .00000103  00000-0  00000-0 0  1084
2 27854   0.0161 253.6658 0003149 138.4682 249.2320  1.00270771    18
GALAXY 13           [PM]
1 27954C 03044A   22099.71771991  .00000138  00000-0  00000-0 0   995
2 27954   0.0505  85.7426 0002048  92.7594 150.8032  1.00270566    18
GALAXY 13               
1 27954C 03044A   22104.00000000  .00000127  00000-0  00000-0 0  1045
2 27954   0.0475  95.4531 0000687  43.2772 296.4095  1.00268906    16
GALAXY 13               
1 27954C 03044A   22108.00000000 -.00004032  00000-0  00000-0 0  1083
2 27954   0.0526  72.3747 0001438 343.6233  23.0791  1.00270236    16
INTELSAT 10-02          
1 28358C 04022A   22104.00000000  .00000072  00000-0  00000-0 0  1040
2 28358   0.0091 238.4364 0001215 150.4434 172.2933  1.00269643    17
INTELSAT 10-02          
1 28358C 04022A   22108.00000000 -.00003493  00000-0  00000-0 0  1089
2 28358   0.0024 262.3631 0001297 156.4293 146.3165  1.00270361    13
GALAXY 28 (G-28)        
1 28702C 05022A   22104.00000000 -.00000135  00000-0  00000-0 0  1045
2 28702   0.0032 254.6736 0002397 128.1699  90.3108  1.00270355    11
GALAXY 28 (G-28)        
1 28702C 05022A   22108.00000000 -.00000095  00000-0  00000-0 0  1088
2 28702   0.0176 298.4790 0002631  99.8254  78.8050  1.00270750    14
GALAXY 28 (G-28)    [PM]
1 28702C 05022A   22111.46574074 -.00000097  00000-0  00000-0 0  1115
2 28702   0.0048 283.5690 0002736 109.7486 254.8547  1.00272401    12
GALAXY 14 (G-14)        
1 28790C 05030A   22104.00000000  .00000246  00000-0  00000-0 0  1043
2 28790   1.0960  92.8493 0002353 286.5664 215.6437  1.00273184    14
GALAXY 14 (G-14)    [PM]
1 28790C 05030A   22107.60763889  .00000246  00000-0  00000-0 0  1076
2 28790   1.1076  92.5503 0001990 291.9110  72.9027  1.00269275    19
GALAXY 14 (G-14)        
1 28790C 05030A   22108.00000000  .00000246  00000-0  00000-0 0  1081
2 28790   1.1095  92.5418 0002098 293.4128 213.0438  1.00269634    14
GALAXY 15 (G-15)        
1 28884C 05041A   22104.00000000  .00000163  00000-0  00000-0 0  1047
2 28884   0.0454  55.5015 0001888 324.0069  49.6360  1.00272586    15
GALAXY 15 (G-15)        
1 28884C 05041A   22108.00000000 -.00003569  00000-0  00000-0 0  1089
2 28884   0.0526  63.3252 0001936 327.5541  42.2237  1.00270078    18
GALAXY 15 (G-15)    [PM]
1 28884C 05041A   22110.07045139  .00000149  00000-0  00000-0 0  1104
2 28884   0.0167  92.6510 0001928 301.3023  66.5416  1.00271864    19
GALAXY 16 (G-16)        
1 29236C 06023A   22104.00000000 -.00000037  00000-0  00000-0 0  1041
2 29236   0.0303 258.8445 0002835 119.7563  84.5531  1.00271562    17
GALAXY 16 (G-16)        
1 29236C 06023A   22108.00000000 -.00000037  00000-0  00000-0 0  1089
2 29236   0.0268 270.1052 0002852 124.5870  72.4064  1.00271537    11
GALAXY 16 (G-16)    [PM]
1 29236C 06023A   22111.52305556 -.00000037  00000-0  00000-0 0  1118
2 29236   0.0120 260.5613 0002946 142.1043 256.2022  1.00270575    13
GALAXY 17 (G-17)        
1 31307C 07016B   22104.00000000 -.00000087  00000-0  00000-0 0  1041
2 31307   0.0397  69.6285 0003221 306.4080  95.1070  1.00272847    14
GALAXY 17 (G-17)        
1 31307C 07016B   22108.00000000 -.00000087  00000-0  00000-0 0  1089
2 31307   0.0517  62.9575 0003219 328.0587  84.0854  1.00271675    10
GALAXY 17 (G-17)    [PM]
1 31307C 07016B   22108.94976852 -.00000087  00000-0  00000-0 0  1089
2 31307   0.0060 124.7841 0003251 269.8309  63.3386  1.00270087    12
GALAXY 17 (G-17)    [PM]
1 31307C 07016B   22109.48600694 -.00000108  00000-0  00000-0 0  1092
2 31307   0.0219  72.6059 0003289 323.5620 255.3551  1.00269936    13
INTELSAT 11 (IS-11)     
1 32253C 07044B   22104.00000000 -.00000178  00000-0  00000-0 0  1044
2 32253   0.0148 254.6929 0002039 125.4719 139.0035  1.00272388    13
